INTELSAT 23 (IS-23)     
1 38867U 12057A   26179.36609308 -.00000273  00000+0  00000+0 0  9998
2 38867   0.0133  43.3574 0000312 119.9070 191.9779  1.00270878 50067
FM-6                    
1 39360U 13058A   26179.49613962 -.00000004  00000+0  00000+0 0  9996
2 39360   0.0193  51.1481 0001701 129.9187 157.8267  1.00271187 46184
INTELSAT 30 (IS-30)     
1 40271U 14062A   26179.57163439 -.00000139  00000+0  00000+0 0  9992
2 40271   0.0208  45.4564 0001694 348.1041 353.8447  1.00271776  6905
DIRECTV 14              
1 40333U 14078B   26179.57076771 -.00000114  00000+0  00000+0 0  9993
2 40333   0.0127  32.4850 0000215  26.5154 323.9001  1.00270927 42156
DIRECTV 15              
1 40663U 15026A   26179.62055194 -.00000090  00000+0  00000+0 0  9998
2 40663   0.0142  53.5419 0000885 342.5545   1.1447  1.00264514 40570
SKY MEXICO-1            
1 40664U 15026B   26179.50350633  .00000000  00000+0  00000+0 0  9992
2 40664   0.0282  24.5669 0002660  90.6929 263.8090  1.00269410 40561
INTELSAT 34 (IS-34)     
1 40874U 15039A   26179.43687637 -.00000274  00000+0  00000+0 0  9992
2 40874   0.0115 355.1346 0000596  53.8482 329.3334  1.00276732 39747
INTELSAT 31 (IS-31)     
1 41581U 16035A   26179.28649939 -.00000139  00000+0  00000+0 0  9991
2 41581   0.0188 279.2995 0000477 336.3020  28.8715  1.00271913 36796
INTELSAT 36 (IS-36)     
1 41747U 16053A   26179.17622190 -.00000009  00000+0  00000+0 0  9999
2 41747   0.0098   3.8061 0002832   0.5781  43.8410  1.00254007 36060
INTELSAT 32E (IS-32E)   
1 41945U 17007B   26179.51061303  .00000000  00000+0  00000+0 0  9990
2 41945   0.0253  13.7224 0000833 344.8751  58.6571  1.00268821 34333
INTELSAT 35E (IS-35E)   
1 42818U 17041A   26179.45029654 -.00000227  00000+0  00000+0 0  9996
2 42818   0.0049  93.5774 0002374   4.5491 306.0305  1.00270872 32922
INTELSAT 37E (IS-37E)   
1 42950U 17059A   26179.58688779  .00000000  00000+0  00000+0 0  9993
2 42950   0.0244  13.3327 0002922  86.6784   9.9504  1.00268323 32181
AZERSPACE 2 (IS-38)     
1 43632U 18074A   26179.59933618  .00000148  00000+0  00000+0 0  9998
2 43632   0.0016  28.0516 0001749  68.4019  81.1122  1.00269402 28568
HORIZONS-3E             
1 43633U 18074B   26179.55265429 -.00000019  00000+0  00000+0 0  9991
2 43633   0.0175 177.2949 0000415 103.6880   3.6308  1.00270628 28454
AT&T T-16               
1 44333U 19034A   26179.57042104 -.00000104  00000+0  00000+0 0  9996
2 44333   0.0135  53.7597 0000692 294.9654  32.4388  1.00272047 25749
INTELSAT 39 (IS-39)     
1 44476U 19049B   26179.53145090  .00000046  00000+0  00000+0 0  9998
2 44476   0.0192 338.8194 0000948  22.9909 168.0882  1.00267879 25243
GALAXY 30 (G-30)        
1 46114U 20056C   26179.56565435  .00000048  00000+0  00000+0 0  9993
2 46114   0.0186  20.7083 0002285  74.0504 260.5201  1.00272318 21407
GALAXY 33 (G-33)        
1 54026U 22128A   26179.56409434  .00000090  00000+0  00000+0 0  9999
2 54026   0.0113 348.2524 0002086 105.5703 252.9083  1.00272134 13855
GALAXY 34 (G-34)        
1 54027U 22128B   26179.56487435  .00000000  00000+0  00000+0 0  9998
2 54027   0.0269 357.9208 0001936 104.8379 248.2548  1.00273874 14024
GALAXY 31 (G-31)        
1 54243U 22153A   26179.56643435  .00000000  00000+0  00000+0 0  9990
2 54243   0.0229  39.4535 0001648  54.8349 265.2838  1.00270269  7248
GALAXY 32 (G-32)        
1 54244U 22153B   26179.28719272 -.00000163  00000+0  00000+0 0  9994
2 54244   0.0117   6.6754 0002339  45.4252 236.6779  1.00276430 13251
GALAXY 35 (G-35)        
1 54741U 22170A   26179.57198105  .00000000  00000+0  00000+0 0  9992
2 54741   0.0215  30.4348 0002218  66.7954 292.2379  1.00269209 13000
GALAXY 36 (G-36)        
1 54742U 22170B   26179.57276105 -.00000174  00000+0  00000+0 0  9993
2 54742   0.0190 264.1027 0002896 185.7954 303.9635  1.00270586 12887
GALAXY 37 (G-37)        
1 57493U 23112A   26179.56530769  .00000059  00000+0  00000+0 0  9995
2 57493   0.0193  60.9976 0002265  34.0125 258.1624  1.00272397 10651
